0 COSMOS 1691 DEB
1 17168U 85094S   13283.84936611  .00001206  00000-0  41405-2 0  4983
2 17168 082.5848 114.0915 0057690 261.5831 160.2757 12.96563606309097
0 COSMOS 1691 DEB
1 17168U 85094S   13286.25516354  .00001765  00000-0  60769-2 0  4994
2 17168 082.5849 112.4592 0057751 255.7646 229.6834 12.96564954309406
0 COSMOS 1691 DEB
1 17168U 85094S   13288.47207787  .00002631  00000-0  90734-2 0  5008
2 17168 082.5852 110.9548 0057901 250.5163 137.3669 12.96571153309699
0 COSMOS 1691 DEB
1 17168U 85094S   13291.48169692  .00001800  00000-0  61941-2 0  5011
2 17168 082.5857 108.9124 0058225 243.5723 144.9707 12.96588927310084
0 COSMOS 1691 DEB
1 17168U 85094S   13293.49599334  .00001596  00000-0  54866-2 0  5025
2 17168 082.5861 107.5456 0058598 239.2007 186.6608 12.96598261310346
0 COSMOS 1691 DEB
1 17168U 85094S   13296.20951510  .00001616  00000-0  55556-2 0  5036
2 17168 082.5860 105.7048 0058624 232.6008 252.7982 12.96605094310691
